{"type": "FeatureCollection", "features": [ {"type": "Feature", "properties": {"norad_id": 40315, "name": "COSMOS 2501 (702K)", "group": "gnss", "lat": -29.239686843004804, "lon": -179.16862036554863, "alt_km": 19161.405850636107, "timestamp": "2025-12-08T17:43:05.171622+00:00", "meta": {"OBJECT_NAME": "COSMOS 2501 (702K)", "OBJECT_ID": "2014-075A", "EPOCH": "2025-12-07T20:13:51.362112", "MEAN_MOTION": 2.13101338, "ECCENTRICITY": 0.00201356, "INCLINATION": 63.6139, "RA_OF_ASC_NODE": 196.9947, "ARG_OF_PERICENTER": 204.4913, "MEAN_ANOMALY": 155.4908, "EPHEMERIS_TYPE": 0, "CLASSIFICATION_TYPE": "U", "NORAD_CAT_ID": 40315, "ELEMENT_SET_NO": 999, "REV_AT_EPOCH": 8577, "BSTAR": 0, "MEAN_MOTION_DOT": 5.4e-07, "MEAN_MOTION_DDOT": 0}, "tle": {"line1": "1 40315U 14075A   25341.84295558  .00000054  00000+0  00000+0 0  9998", "line2": "2 40315  63.6139 196.9947 0020135 204.4913 155.4908  2.13101338 85773"}}, "geometry": {"type": "Point", "coordinates": [-179.16862036554863, -29.239686843004804]}}, {"type": "Feature", "properties": {"norad_id": 40534, "name": "GPS BIIF-9  (PRN 26)", "group": "gnss", "lat": 51.742774142770735, "lon": -39.55694974823481, "alt_km": 20044.06663671377, "timestamp": "2025-12-08T17:43:05.171636+00:00", "meta": {"OBJECT_NAME": "GPS BIIF-9  (PRN 26)", "OBJECT_ID": "2015-013A", "EPOCH": "2025-12-07T14:28:59.851200", "MEAN_MOTION": 2.00562814, "ECCENTRICITY": 0.01068213, "INCLINATION": 53.1985, "RA_OF_ASC_NODE": 212.103, "ARG_OF_PERICENTER": 38.3543, "MEAN_ANOMALY": 322.4903, "EPHEMERIS_TYPE": 0, "CLASSIFICATION_TYPE": "U", "NORAD_CAT_ID": 40534, "ELEMENT_SET_NO": 999, "REV_AT_EPOCH": 7798, "BSTAR": 0, "MEAN_MOTION_DOT": 3.4e-07, "MEAN_MOTION_DDOT": 0}, "tle": {"line1": "1 40534U 15013A   25341.60347050  .00000034  00000+0  00000+0 0  9991", "line2": "2 40534  53.1985 212.1030 0106821  38.3543 322.4903  2.00562814 77984"}}, "geometry": {"type": "Point", "coordinates": [-39.55694974823481, 51.742774142770735]}}, {"type": "Feature", "properties": {"norad_id": 40544, "name": "GSAT0203 (GALILEO 7)", "group": "gnss", "lat": 55.12982706885408, "lon": 97.05347007544376, "alt_km": 23234.65233613618, "timestamp": "2025-12-08T17:43:05.171648+00:00", "meta": {"OBJECT_NAME": "GSAT0203 (GALILEO 7)", "OBJECT_ID": "2015-017A", "EPOCH": "2025-12-07T23:40:17.785344", "MEAN_MOTION": 1.70475803, "ECCENTRICITY": 0.00065197, "INCLINATION": 56.8473, "RA_OF_ASC_NODE": 346.8097, "ARG_OF_PERICENTER": 270.7442, "MEAN_ANOMALY": 89.1988, "EPHEMERIS_TYPE": 0, "CLASSIFICATION_TYPE": "U", "NORAD_CAT_ID": 40544, "ELEMENT_SET_NO": 999, "REV_AT_EPOCH": 6594, "BSTAR": 0, "MEAN_MOTION_DOT": -8.6e-07, "MEAN_MOTION_DDOT": 0}, "tle": {"line1": "1 40544U 15017A   25341.98631696 -.00000086  00000+0  00000+0 0  9997", "line2": "2 40544  56.8473 346.8097 0006519 270.7442  89.1988  1.70475803 65948"}}, "geometry": {"type": "Point", "coordinates": [97.05347007544376, 55.12982706885408]}}, {"type": "Feature", "properties": {"norad_id": 40545, "name": "GSAT0204 (GALILEO 8)", "group": "gnss", "lat": -43.49686335504768, "lon": -51.51878973297336, "alt_km": 23213.484658961122, "timestamp": "2025-12-08T17:43:05.171659+00:00", "meta": {"OBJECT_NAME": "GSAT0204 (GALILEO 8)", "OBJECT_ID": "2015-017B", "EPOCH": "2025-12-08T05:48:09.490464", "MEAN_MOTION": 1.70475483, "ECCENTRICITY": 0.00062708, "INCLINATION": 56.8542, "RA_OF_ASC_NODE": 346.8204, "ARG_OF_PERICENTER": 261.7403, "MEAN_ANOMALY": 98.2059, "EPHEMERIS_TYPE": 0, "CLASSIFICATION_TYPE": "U", "NORAD_CAT_ID": 40545, "ELEMENT_SET_NO": 999, "REV_AT_EPOCH": 2899, "BSTAR": 0, "MEAN_MOTION_DOT": -8.6e-07, "MEAN_MOTION_DDOT": 0}, "tle": {"line1": "1 40545U 15017B   25342.24177651 -.00000086  00000+0  00000+0 0  9994", "line2": "2 40545  56.8542 346.8204 0006270 261.7403  98.2059  1.70475483 28995"}}, "geometry": {"type": "Point", "coordinates": [-51.51878973297336, -43.49686335504768]}}, {"type": "Feature", "properties": {"norad_id": 40730, "name": "GPS BIIF-10 (PRN 08)", "group": "gnss", "lat": -14.048797103090198, "lon": -95.49086462297873, "alt_km": 19971.322966395313, "timestamp": "2025-12-08T17:43:05.171671+00:00", "meta": {"OBJECT_NAME": "GPS BIIF-10 (PRN 08)", "OBJECT_ID": "2015-033A", "EPOCH": "2025-12-07T18:21:19.521792", "MEAN_MOTION": 2.00565772, "ECCENTRICITY": 0.0110644, "INCLINATION": 54.1351, "RA_OF_ASC_NODE": 274.9776, "ARG_OF_PERICENTER": 26.6875, "MEAN_ANOMALY": 333.8934, "EPHEMERIS_TYPE": 0, "CLASSIFICATION_TYPE": "U", "NORAD_CAT_ID": 40730, "ELEMENT_SET_NO": 999, "REV_AT_EPOCH": 7615, "BSTAR": 0, "MEAN_MOTION_DOT": -3.6e-07, "MEAN_MOTION_DDOT": 0}, "tle": {"line1": "1 40730U 15033A   25341.76480928 -.00000036  00000+0  00000+0 0  9993", "line2": "2 40730  54.1351 274.9776 0110644  26.6875 333.8934  2.00565772 76153"}}, "geometry": {"type": "Point", "coordinates": [-95.49086462297873, -14.048797103090198]}}, {"type": "Feature", "properties": {"norad_id": 40748, "name": "BEIDOU-3S M2S (C58)", "group": "gnss", "lat": 17.772404344942334, "lon": -38.470272168245565, "alt_km": 21539.937932678495, "timestamp": "2025-12-08T17:43:05.171682+00:00", "meta": {"OBJECT_NAME": "BEIDOU-3S M2S (C58)", "OBJECT_ID": "2015-037A", "EPOCH": "2025-12-07T02:16:25.877280", "MEAN_MOTION": 1.86229046, "ECCENTRICITY": 0.00123234, "INCLINATION": 55.0438, "RA_OF_ASC_NODE": 308.6574, "ARG_OF_PERICENTER": 268.1088, "MEAN_ANOMALY": 91.7345, "EPHEMERIS_TYPE": 0, "CLASSIFICATION_TYPE": "U", "NORAD_CAT_ID": 40748, "ELEMENT_SET_NO": 999, "REV_AT_EPOCH": 7054, "BSTAR": 0, "MEAN_MOTION_DOT": -7e-07, "MEAN_MOTION_DDOT": 0}, "tle": {"line1": "1 40748U 15037A   25341.09474395 -.00000070  00000+0  00000+0 0  9991", "line2": "2 40748  55.0438 308.6574 0012323 268.1088  91.7345  1.86229046 70540"}}, "geometry": {"type": "Point", "coordinates": [-38.470272168245565, 17.772404344942334]}}, {"type": "Feature", "properties": {"norad_id": 40749, "name": "BEIDOU-3S M1S (C57)", "group": "gnss", "lat": -36.96402672294024, "lon": 160.31781472615572, "alt_km": 21536.0764832389, "timestamp": "2025-12-08T17:43:05.171694+00:00", "meta": {"OBJECT_NAME": "BEIDOU-3S M1S (C57)", "OBJECT_ID": "2015-037B", "EPOCH": "2025-12-01T22:57:46.412352", "MEAN_MOTION": 1.86253762, "ECCENTRICITY": 0.0003321, "INCLINATION": 55.0451, "RA_OF_ASC_NODE": 308.8236, "ARG_OF_PERICENTER": 355.9906, "MEAN_ANOMALY": 3.9975, "EPHEMERIS_TYPE": 0, "CLASSIFICATION_TYPE": "U", "NORAD_CAT_ID": 40749, "ELEMENT_SET_NO": 999, "REV_AT_EPOCH": 7045, "BSTAR": 0, "MEAN_MOTION_DOT": -6e-07, "MEAN_MOTION_DDOT": 0}, "tle": {"line1": "1 40749U 15037B   25335.95678718 -.00000060  00000+0  00000+0 0  9994", "line2": "2 40749  55.0451 308.8236 0003321 355.9906   3.9975  1.86253762 70451"}}, "geometry": {"type": "Point", "coordinates": [160.31781472615572, -36.96402672294024]}}, {"type": "Feature", "properties": {"norad_id": 40889, "name": "GSAT0205 (GALILEO 9)", "group": "gnss", "lat": 54.89052750416496, "lon": -48.54975596690879, "alt_km": 23204.07947883397, "timestamp": "2025-12-08T17:43:05.171707+00:00", "meta": {"OBJECT_NAME": "GSAT0205 (GALILEO 9)", "OBJECT_ID": "2015-045A", "EPOCH": "2025-12-06T20:05:28.161600", "MEAN_MOTION": 1.70472973, "ECCENTRICITY": 0.00059315, "INCLINATION": 55.0055, "RA_OF_ASC_NODE": 226.9215, "ARG_OF_PERICENTER": 39.3036, "MEAN_ANOMALY": 320.836, "EPHEMERIS_TYPE": 0, "CLASSIFICATION_TYPE": "U", "NORAD_CAT_ID": 40889, "ELEMENT_SET_NO": 999, "REV_AT_EPOCH": 6373, "BSTAR": 0, "MEAN_MOTION_DOT": 2.8e-07, "MEAN_MOTION_DDOT": 0}, "tle": {"line1": "1 40889U 15045A   25340.83713150  .00000028  00000+0  00000+0 0  9994", "line2": "2 40889  55.0055 226.9215 0005931  39.3036 320.8360  1.70472973 63731"}}, "geometry": {"type": "Point", "coordinates": [-48.54975596690879, 54.89052750416496]}}, {"type": "Feature", "properties": {"norad_id": 40890, "name": "GSAT0206 (GALILEO 10)", "group": "gnss", "lat": -37.95427533453188, "lon": -166.21572986904957, "alt_km": 23225.215298095543, "timestamp": "2025-12-08T17:43:05.171719+00:00", "meta": {"OBJECT_NAME": "GSAT0206 (GALILEO 10)", "OBJECT_ID": "2015-045B", "EPOCH": "2025-12-05T21:13:48.980352", "MEAN_MOTION": 1.70473029, "ECCENTRICITY": 0.00035588, "INCLINATION": 55.0048, "RA_OF_ASC_NODE": 226.9429, "ARG_OF_PERICENTER": 32.2764, "MEAN_ANOMALY": 327.8431, "EPHEMERIS_TYPE": 0, "CLASSIFICATION_TYPE": "U", "NORAD_CAT_ID": 40890, "ELEMENT_SET_NO": 999, "REV_AT_EPOCH": 6374, "BSTAR": 0, "MEAN_MOTION_DOT": 3.5e-07, "MEAN_MOTION_DDOT": 0}, "tle": {"line1": "1 40890U 15045B   25339.88459468  .00000035  00000+0  00000+0 0  9996", "line2": "2 40890  55.0048 226.9429 0003558  32.2764 327.8431  1.70473029 63745"}}, "geometry": {"type": "Point", "coordinates": [-166.21572986904957, -37.95427533453188]}}, {"type": "Feature", "properties": {"norad_id": 40938, "name": "BEIDOU-3S IGSO-2S (C56)", "group": "gnss", "lat": 1.2293685267369985, "lon": 79.99550687664973, "alt_km": 35533.21079578143, "timestamp": "2025-12-08T17:43:05.171731+00:00", "meta": {"OBJECT_NAME": "BEIDOU-3S IGSO-2S (C56)", "OBJECT_ID": "2015-053A", "EPOCH": "2025-12-07T17:59:38.817312", "MEAN_MOTION": 1.00270783, "ECCENTRICITY": 0.0060962, "INCLINATION": 49.5194, "RA_OF_ASC_NODE": 261.0646, "ARG_OF_PERICENTER": 188.6217, "MEAN_ANOMALY": 353.0712, "EPHEMERIS_TYPE": 0, "CLASSIFICATION_TYPE": "U", "NORAD_CAT_ID": 40938, "ELEMENT_SET_NO": 999, "REV_AT_EPOCH": 3743, "BSTAR": 0, "MEAN_MOTION_DOT": -1.42e-06, "MEAN_MOTION_DDOT": 0}, "tle": {"line1": "1 40938U 15053A   25341.74975483 -.00000142  00000+0  00000+0 0  9996", "line2": "2 40938  49.5194 261.0646 0060962 188.6217 353.0712  1.00270783 37435"}}, "geometry": {"type": "Point", "coordinates": [79.99550687664973, 1.2293685267369985]}}]}